CCSDS_OMM_VERS = 2.0
CREATION_DATE  = 
ORIGINATOR     = 

OBJECT_NAME    = SL-16 R/B
OBJECT_ID      = 1998-045B
CENTER_NAME    = EARTH
REF_FRAME      = TEME
TIME_SYSTEM    = UTC
MEAN_ELEMENT_THEORY = SGP/SGP4

EPOCH          = 2026-04-02T19:12:22.754304
MEAN_MOTION    = 14.16193287
ECCENTRICITY   = .00081837
INCLINATION    = 71.0091
RA_OF_ASC_NODE = 130.8724
ARG_OF_PERICENTER = 332.4015
MEAN_ANOMALY   = 27.6673

EPHEMERIS_TYPE = 0
CLASSIFICATION_TYPE = U
NORAD_CAT_ID   = 25407
ELEMENT_SET_NO = 999
REV_AT_EPOCH   = 43051
BSTAR          = .21634344E-4
MEAN_MOTION_DOT = -.5E-7
MEAN_MOTION_DDOT = 0

CCSDS_OMM_VERS = 2.0
CREATION_DATE  = 
ORIGINATOR     = 

OBJECT_NAME    = ISS (ZARYA)
OBJECT_ID      = 1998-067A
CENTER_NAME    = EARTH
REF_FRAME      = TEME
TIME_SYSTEM    = UTC
MEAN_ELEMENT_THEORY = SGP/SGP4

EPOCH          = 2026-04-02T20:14:17.914560
MEAN_MOTION    = 15.48729122
ECCENTRICITY   = .00062358
INCLINATION    = 51.6328
RA_OF_ASC_NODE = 312.9475
ARG_OF_PERICENTER = 264.7845
MEAN_ANOMALY   = 95.2432

EPHEMERIS_TYPE = 0
CLASSIFICATION_TYPE = U
NORAD_CAT_ID   = 25544
ELEMENT_SET_NO = 999
REV_AT_EPOCH   = 56007
BSTAR          = .22446991E-3
MEAN_MOTION_DOT = .11825E-3
MEAN_MOTION_DDOT = 0

CCSDS_OMM_VERS = 2.0
CREATION_DATE  = 
ORIGINATOR     = 

OBJECT_NAME    = CZ-4B R/B
OBJECT_ID      = 1999-025C
CENTER_NAME    = EARTH
REF_FRAME      = TEME
TIME_SYSTEM    = UTC
MEAN_ELEMENT_THEORY = SGP/SGP4

EPOCH          = 2026-04-02T21:14:52.816128
MEAN_MOTION    = 14.18270341
ECCENTRICITY   = .00359683
INCLINATION    = 98.6575
RA_OF_ASC_NODE = 136.5883
ARG_OF_PERICENTER = 275.3948
MEAN_ANOMALY   = 257.0985

EPHEMERIS_TYPE = 0
CLASSIFICATION_TYPE = U
NORAD_CAT_ID   = 25732
ELEMENT_SET_NO = 999
REV_AT_EPOCH   = 39159
BSTAR          = .65030156E-4
MEAN_MOTION_DOT = .91E-6
MEAN_MOTION_DDOT = 0

CCSDS_OMM_VERS = 2.0
CREATION_DATE  = 
ORIGINATOR     = 

OBJECT_NAME    = OKEAN-O
OBJECT_ID      = 1999-039A
CENTER_NAME    = EARTH
REF_FRAME      = TEME
TIME_SYSTEM    = UTC
MEAN_ELEMENT_THEORY = SGP/SGP4

EPOCH          = 2026-04-02T22:01:27.574464
MEAN_MOTION    = 14.80376548
ECCENTRICITY   = .00009143
INCLINATION    = 97.9391
RA_OF_ASC_NODE = 152.5568
ARG_OF_PERICENTER = 101.4956
MEAN_ANOMALY   = 258.6359

EPHEMERIS_TYPE = 0
CLASSIFICATION_TYPE = U
NORAD_CAT_ID   = 25860
ELEMENT_SET_NO = 999
REV_AT_EPOCH   = 43797
BSTAR          = .14651498E-3
MEAN_MOTION_DOT = .1066E-4
MEAN_MOTION_DDOT = 0

CCSDS_OMM_VERS = 2.0
CREATION_DATE  = 
ORIGINATOR     = 

OBJECT_NAME    = SL-16 R/B
OBJECT_ID      = 1999-039B
CENTER_NAME    = EARTH
REF_FRAME      = TEME
TIME_SYSTEM    = UTC
MEAN_ELEMENT_THEORY = SGP/SGP4

EPOCH          = 2026-04-02T20:59:42.224928
MEAN_MOTION    = 14.81766630
ECCENTRICITY   = .00149512
INCLINATION    = 97.9915
RA_OF_ASC_NODE = 151.9292
ARG_OF_PERICENTER = 173.7488
MEAN_ANOMALY   = 186.3914

EPHEMERIS_TYPE = 0
CLASSIFICATION_TYPE = U
NORAD_CAT_ID   = 25861
ELEMENT_SET_NO = 999
REV_AT_EPOCH   = 44044
BSTAR          = .12534568E-3
MEAN_MOTION_DOT = .936E-5
MEAN_MOTION_DDOT = 0

CCSDS_OMM_VERS = 2.0
CREATION_DATE  = 
ORIGINATOR     = 

OBJECT_NAME    = DELTA 2 R/B
OBJECT_ID      = 1999-041E
CENTER_NAME    = EARTH
REF_FRAME      = TEME
TIME_SYSTEM    = UTC
MEAN_ELEMENT_THEORY = SGP/SGP4

EPOCH          = 2026-04-02T13:57:10.947744
MEAN_MOTION    = 14.11892754
ECCENTRICITY   = .05026361
INCLINATION    = 51.7608
RA_OF_ASC_NODE = 205.8385
ARG_OF_PERICENTER = 58.8851
MEAN_ANOMALY   = 306.0393

EPHEMERIS_TYPE = 0
CLASSIFICATION_TYPE = U
NORAD_CAT_ID   = 25876
ELEMENT_SET_NO = 999
REV_AT_EPOCH   = 36640
BSTAR          = .17038263E-3
MEAN_MOTION_DOT = .813E-5
MEAN_MOTION_DDOT = 0

CCSDS_OMM_VERS = 2.0
CREATION_DATE  = 
ORIGINATOR     = 

OBJECT_NAME    = HELIOS 1B
OBJECT_ID      = 1999-064A
CENTER_NAME    = EARTH
REF_FRAME      = TEME
TIME_SYSTEM    = UTC
MEAN_ELEMENT_THEORY = SGP/SGP4

EPOCH          = 2026-04-02T15:46:27.117120
MEAN_MOTION    = 14.87792668
ECCENTRICITY   = .00015922
INCLINATION    = 98.1673
RA_OF_ASC_NODE = 355.6027
ARG_OF_PERICENTER = 45.4257
MEAN_ANOMALY   = 314.7088

EPHEMERIS_TYPE = 0
CLASSIFICATION_TYPE = U
NORAD_CAT_ID   = 25977
ELEMENT_SET_NO = 999
REV_AT_EPOCH   = 68882
BSTAR          = .24193031E-3
MEAN_MOTION_DOT = .2151E-4
MEAN_MOTION_DDOT = 0

CCSDS_OMM_VERS = 2.0
CREATION_DATE  = 
ORIGINATOR     = 

OBJECT_NAME    = TERRA
OBJECT_ID      = 1999-068A
CENTER_NAME    = EARTH
REF_FRAME      = TEME
TIME_SYSTEM    = UTC
MEAN_ELEMENT_THEORY = SGP/SGP4

EPOCH          = 2026-04-02T21:53:08.350944
MEAN_MOTION    = 14.61041892
ECCENTRICITY   = .00036612
INCLINATION    = 97.9542
RA_OF_ASC_NODE = 145.4152
ARG_OF_PERICENTER = 101.6649
MEAN_ANOMALY   = 70.5638

EPHEMERIS_TYPE = 0
CLASSIFICATION_TYPE = U
NORAD_CAT_ID   = 25994
ELEMENT_SET_NO = 999
REV_AT_EPOCH   = 39861
BSTAR          = .14976057E-3
MEAN_MOTION_DOT = .691E-5
MEAN_MOTION_DDOT = 0

CCSDS_OMM_VERS = 2.0
CREATION_DATE  = 
ORIGINATOR     = 

OBJECT_NAME    = SL-16 R/B
OBJECT_ID      = 2000-006B
CENTER_NAME    = EARTH
REF_FRAME      = TEME
TIME_SYSTEM    = UTC
MEAN_ELEMENT_THEORY = SGP/SGP4

EPOCH          = 2026-04-02T23:07:06.832128
MEAN_MOTION    = 14.15830597
ECCENTRICITY   = .00153381
INCLINATION    = 71.0036
RA_OF_ASC_NODE = 46.7943
ARG_OF_PERICENTER = 151.7633
MEAN_ANOMALY   = 208.4325

EPHEMERIS_TYPE = 0
CLASSIFICATION_TYPE = U
NORAD_CAT_ID   = 26070
ELEMENT_SET_NO = 999
REV_AT_EPOCH   = 35199
BSTAR          = .11345218E-3
MEAN_MOTION_DOT = .176E-5
MEAN_MOTION_DDOT = 0

CCSDS_OMM_VERS = 2.0
CREATION_DATE  = 
ORIGINATOR     = 

OBJECT_NAME    = TITAN 4B R/B
OBJECT_ID      = 2000-047B
CENTER_NAME    = EARTH
REF_FRAME      = TEME
TIME_SYSTEM    = UTC
MEAN_ELEMENT_THEORY = SGP/SGP4

EPOCH          = 2026-04-02T22:40:58.505376
MEAN_MOTION    = 15.09792145
ECCENTRICITY   = .00401712
INCLINATION    = 67.9907
RA_OF_ASC_NODE = 332.2964
ARG_OF_PERICENTER = 6.9608
MEAN_ANOMALY   = 353.2090

EPHEMERIS_TYPE = 0
CLASSIFICATION_TYPE = U
NORAD_CAT_ID   = 26474
ELEMENT_SET_NO = 999
REV_AT_EPOCH   = 39657
BSTAR          = .38199969E-3
MEAN_MOTION_DOT = .6172E-4
MEAN_MOTION_DDOT = 0

CCSDS_OMM_VERS = 2.0
CREATION_DATE  = 
ORIGINATOR     = 

OBJECT_NAME    = ENVISAT
OBJECT_ID      = 2002-009A
CENTER_NAME    = EARTH
REF_FRAME      = TEME
TIME_SYSTEM    = UTC
MEAN_ELEMENT_THEORY = SGP/SGP4

EPOCH          = 2026-04-02T20:51:34.355232
MEAN_MOTION    = 14.39045523
ECCENTRICITY   = .00012026
INCLINATION    = 98.3769
RA_OF_ASC_NODE = 45.8968
ARG_OF_PERICENTER = 82.2037
MEAN_ANOMALY   = 291.3890

EPHEMERIS_TYPE = 0
CLASSIFICATION_TYPE = U
NORAD_CAT_ID   = 27386
ELEMENT_SET_NO = 999
REV_AT_EPOCH   = 26265
BSTAR          = .62187827E-4
MEAN_MOTION_DOT = .149E-5
MEAN_MOTION_DDOT = 0

CCSDS_OMM_VERS = 2.0
CREATION_DATE  = 
ORIGINATOR     = 

OBJECT_NAME    = IDEFIX & ARIANE 42P R/B
OBJECT_ID      = 2002-021B
CENTER_NAME    = EARTH
REF_FRAME      = TEME
TIME_SYSTEM    = UTC
MEAN_ELEMENT_THEORY = SGP/SGP4

EPOCH          = 2026-04-02T19:52:07.816800
MEAN_MOTION    = 14.31043524
ECCENTRICITY   = .0012824
INCLINATION    = 98.5898
RA_OF_ASC_NODE = 31.1497
ARG_OF_PERICENTER = 113.8354
MEAN_ANOMALY   = 246.4175

EPHEMERIS_TYPE = 0
CLASSIFICATION_TYPE = U
NORAD_CAT_ID   = 27422
ELEMENT_SET_NO = 999
REV_AT_EPOCH   = 24747
BSTAR          = .1832315E-3
MEAN_MOTION_DOT = .439E-5
MEAN_MOTION_DDOT = 0

